{"fetched_at":"2026-07-13T07:47:59.900Z","source":"https://celestrak.org/NORAD/elements/gp.php?GROUP=spire&FORMAT=JSON","constellation":"spire","records":[{"OBJECT_NAME":"LEMUR-2-HUBBLE-4","OBJECT_ID":"2025-135AP","EPOCH":"2026-07-12T19:07:00.661152","CLASSIFICATION_TYPE":"U","MEAN_MOTION":14.93681491,"ECCENTRICITY":0.0002486,"INCLINATION":97.7717,"RA_OF_ASC_NODE":307.4051,"ARG_OF_PERICENTER":168.7052,"MEAN_ANOMALY":191.4224,"EPHEMERIS_TYPE":0,"NORAD_CAT_ID":64565,"ELEMENT_SET_NO":999,"REV_AT_EPOCH":5769,"BSTAR":0.00011277,"MEAN_MOTION_DOT":0.00001136,"MEAN_MOTION_DDOT":0},{"OBJECT_NAME":"LEMUR-2-SEJONG-2","OBJECT_ID":"2025-135BL","EPOCH":"2026-07-12T20:12:13.713696","CLASSIFICATION_TYPE":"U","MEAN_MOTION":14.96901348,"ECCENTRICITY":0.0003802,"INCLINATION":97.7704,"RA_OF_ASC_NODE":308.6924,"ARG_OF_PERICENTER":229.838,"MEAN_ANOMALY":130.2509,"EPHEMERIS_TYPE":0,"NORAD_CAT_ID":64586,"ELEMENT_SET_NO":999,"REV_AT_EPOCH":5778,"BSTAR":0.00019593,"MEAN_MOTION_DOT":0.0000219,"MEAN_MOTION_DDOT":0},{"OBJECT_NAME":"LEMUR-2-HUBBLE-5","OBJECT_ID":"2025-135BT","EPOCH":"2026-07-12T19:20:57.267168","CLASSIFICATION_TYPE":"U","MEAN_MOTION":14.942097,"ECCENTRICITY":0.00042,"INCLINATION":97.7738,"RA_OF_ASC_NODE":308.0811,"ARG_OF_PERICENTER":245.1864,"MEAN_ANOMALY":114.892,"EPHEMERIS_TYPE":0,"NORAD_CAT_ID":64840,"ELEMENT_SET_NO":999,"REV_AT_EPOCH":5773,"BSTAR":0.00010766,"MEAN_MOTION_DOT":0.00001096,"MEAN_MOTION_DDOT":0},{"OBJECT_NAME":"LEMUR-2-KARENDARRELL","OBJECT_ID":"2025-135BU","EPOCH":"2026-07-12T19:05:52.398240","CLASSIFICATION_TYPE":"U","MEAN_MOTION":15.00479897,"ECCENTRICITY":0.0012186,"INCLINATION":97.7709,"RA_OF_ASC_NODE":309.9685,"ARG_OF_PERICENTER":111.6941,"MEAN_ANOMALY":248.5581,"EPHEMERIS_TYPE":0,"NORAD_CAT_ID":64841,"ELEMENT_SET_NO":999,"REV_AT_EPOCH":5785,"BSTAR":0.00038647,"MEAN_MOTION_DOT":0.00004814,"MEAN_MOTION_DDOT":0},{"OBJECT_NAME":"LEMUR-2-LUCILLE-ROSE","OBJECT_ID":"2025-135BV","EPOCH":"2026-07-12T18:27:37.154592","CLASSIFICATION_TYPE":"U","MEAN_MOTION":15.00471753,"ECCENTRICITY":0.0014619,"INCLINATION":97.7712,"RA_OF_ASC_NODE":309.9783,"ARG_OF_PERICENTER":196.4667,"MEAN_ANOMALY":163.6083,"EPHEMERIS_TYPE":0,"NORAD_CAT_ID":65403,"ELEMENT_SET_NO":999,"REV_AT_EPOCH":5247,"BSTAR":0.00030337,"MEAN_MOTION_DOT":0.00003766,"MEAN_MOTION_DDOT":0},{"OBJECT_NAME":"LEMUR-2-AFFIE-WAUWIE","OBJECT_ID":"2025-248C","EPOCH":"2026-07-12T10:16:00.043392","CLASSIFICATION_TYPE":"U","MEAN_MOTION":15.28172277,"ECCENTRICITY":0.00087247,"INCLINATION":45.3911,"RA_OF_ASC_NODE":338.1335,"ARG_OF_PERICENTER":238.0839,"MEAN_ANOMALY":121.9202,"EPHEMERIS_TYPE":0,"NORAD_CAT_ID":66295,"ELEMENT_SET_NO":999,"REV_AT_EPOCH":3845,"BSTAR":0.00045877995,"MEAN_MOTION_DOT":0.00012562,"MEAN_MOTION_DDOT":0},{"OBJECT_NAME":"OTTER SDM","OBJECT_ID":"2025-276N","EPOCH":"2026-07-12T17:27:34.591680","CLASSIFICATION_TYPE":"U","MEAN_MOTION":15.20039663,"ECCENTRICITY":0.0004236,"INCLINATION":97.4208,"RA_OF_ASC_NODE":266.7825,"ARG_OF_PERICENTER":265.7199,"MEAN_ANOMALY":94.3553,"EPHEMERIS_TYPE":0,"NORAD_CAT_ID":66678,"ELEMENT_SET_NO":999,"REV_AT_EPOCH":3429,"BSTAR":0.00017678,"MEAN_MOTION_DOT":0.00003744,"MEAN_MOTION_DDOT":0},{"OBJECT_NAME":"LEMUR-2-STAS-GORBUK","OBJECT_ID":"2025-276W","EPOCH":"2026-07-12T17:57:30.731040","CLASSIFICATION_TYPE":"U","MEAN_MOTION":15.19644338,"ECCENTRICITY":0.0003456,"INCLINATION":97.4243,"RA_OF_ASC_NODE":266.8551,"ARG_OF_PERICENTER":260.6907,"MEAN_ANOMALY":99.3937,"EPHEMERIS_TYPE":0,"NORAD_CAT_ID":66686,"ELEMENT_SET_NO":999,"REV_AT_EPOCH":3429,"BSTAR":0.0001804,"MEAN_MOTION_DOT":0.00003778,"MEAN_MOTION_DDOT":0},{"OBJECT_NAME":"LEMUR-2-TEODOR","OBJECT_ID":"2025-276DG","EPOCH":"2026-07-12T18:28:26.063040","CLASSIFICATION_TYPE":"U","MEAN_MOTION":15.21322077,"ECCENTRICITY":0.0002281,"INCLINATION":97.4147,"RA_OF_ASC_NODE":267.1448,"ARG_OF_PERICENTER":89.7179,"MEAN_ANOMALY":270.4318,"EPHEMERIS_TYPE":0,"NORAD_CAT_ID":66768,"ELEMENT_SET_NO":999,"REV_AT_EPOCH":3433,"BSTAR":0.00016439,"MEAN_MOTION_DOT":0.0000361,"MEAN_MOTION_DDOT":0},{"OBJECT_NAME":"LEMUR-2-LAILA","OBJECT_ID":"2025-276DQ","EPOCH":"2026-07-12T17:45:28.022688","CLASSIFICATION_TYPE":"U","MEAN_MOTION":15.21547275,"ECCENTRICITY":0.0002909,"INCLINATION":97.417,"RA_OF_ASC_NODE":267.2527,"ARG_OF_PERICENTER":97.94,"MEAN_ANOMALY":262.2166,"EPHEMERIS_TYPE":0,"NORAD_CAT_ID":66776,"ELEMENT_SET_NO":999,"REV_AT_EPOCH":3433,"BSTAR":0.00015926,"MEAN_MOTION_DOT":0.00003519,"MEAN_MOTION_DDOT":0},{"OBJECT_NAME":"LEMUR-2-CELIJO-SB-PK","OBJECT_ID":"2025-276DW","EPOCH":"2026-07-12T17:12:39.547296","CLASSIFICATION_TYPE":"U","MEAN_MOTION":15.00270997,"ECCENTRICITY":0.0007109,"INCLINATION":97.52,"RA_OF_ASC_NODE":263.6519,"ARG_OF_PERICENTER":70.2269,"MEAN_ANOMALY":289.9721,"EPHEMERIS_TYPE":0,"NORAD_CAT_ID":66781,"ELEMENT_SET_NO":999,"REV_AT_EPOCH":2645,"BSTAR":0.00026718,"MEAN_MOTION_DOT":0.0000329,"MEAN_MOTION_DDOT":0},{"OBJECT_NAME":"LEMUR-2-FINNIAN","OBJECT_ID":"2025-276DX","EPOCH":"2026-07-12T18:06:41.046336","CLASSIFICATION_TYPE":"U","MEAN_MOTION":15.00601115,"ECCENTRICITY":0.0007886,"INCLINATION":97.5339,"RA_OF_ASC_NODE":263.9508,"ARG_OF_PERICENTER":9.8225,"MEAN_ANOMALY":350.3152,"EPHEMERIS_TYPE":0,"NORAD_CAT_ID":66782,"ELEMENT_SET_NO":999,"REV_AT_EPOCH":2383,"BSTAR":0.00014177,"MEAN_MOTION_DOT":0.00001734,"MEAN_MOTION_DDOT":0},{"OBJECT_NAME":"LEMUR-2-STARLIGHT","OBJECT_ID":"2025-276DY","EPOCH":"2026-07-12T15:59:40.842816","CLASSIFICATION_TYPE":"U","MEAN_MOTION":14.99335039,"ECCENTRICITY":0.0014811,"INCLINATION":97.5235,"RA_OF_ASC_NODE":263.4338,"ARG_OF_PERICENTER":54.7591,"MEAN_ANOMALY":305.5016,"EPHEMERIS_TYPE":0,"NORAD_CAT_ID":66783,"ELEMENT_SET_NO":999,"REV_AT_EPOCH":3401,"BSTAR":0.00030466,"MEAN_MOTION_DOT":0.00003675,"MEAN_MOTION_DDOT":0},{"OBJECT_NAME":"LEMUR-2-TARTIFLETTE","OBJECT_ID":"2025-276DZ","EPOCH":"2026-07-12T17:33:26.701056","CLASSIFICATION_TYPE":"U","MEAN_MOTION":14.99322354,"ECCENTRICITY":0.0013873,"INCLINATION":97.5235,"RA_OF_ASC_NODE":263.5049,"ARG_OF_PERICENTER":62.7426,"MEAN_ANOMALY":297.5209,"EPHEMERIS_TYPE":0,"NORAD_CAT_ID":66784,"ELEMENT_SET_NO":999,"REV_AT_EPOCH":3402,"BSTAR":0.00029192,"MEAN_MOTION_DOT":0.00003516,"MEAN_MOTION_DDOT":0},{"OBJECT_NAME":"LEMUR-2-VUKASIN","OBJECT_ID":"2025-276EA","EPOCH":"2026-07-12T18:29:38.429088","CLASSIFICATION_TYPE":"U","MEAN_MOTION":15.00534503,"ECCENTRICITY":0.0003464,"INCLINATION":97.5239,"RA_OF_ASC_NODE":263.8969,"ARG_OF_PERICENTER":61.5211,"MEAN_ANOMALY":298.6362,"EPHEMERIS_TYPE":0,"NORAD_CAT_ID":66785,"ELEMENT_SET_NO":999,"REV_AT_EPOCH":3398,"BSTAR":0.00025592,"MEAN_MOTION_DOT":0.0000317,"MEAN_MOTION_DDOT":0},{"OBJECT_NAME":"LEMUR-2-HOTSPUR-TOM","OBJECT_ID":"2025-276EB","EPOCH":"2026-07-12T19:01:15.762720","CLASSIFICATION_TYPE":"U","MEAN_MOTION":14.99227481,"ECCENTRICITY":0.0013783,"INCLINATION":97.5223,"RA_OF_ASC_NODE":263.5388,"ARG_OF_PERICENTER":53.6491,"MEAN_ANOMALY":306.6002,"EPHEMERIS_TYPE":0,"NORAD_CAT_ID":66786,"ELEMENT_SET_NO":999,"REV_AT_EPOCH":3396,"BSTAR":0.00028941,"MEAN_MOTION_DOT":0.00003477,"MEAN_MOTION_DDOT":0}]}
